[{"OBJECT_NAME":"STARLINK-30807","OBJECT_ID":"2023-167T","EPOCH":"2026-03-09T05:24:03.045600","MEAN_MOTION":15.27589562,"ECCENTRICITY":0.00011118,"INCLINATION":42.9957,"RA_OF_ASC_NODE":146.0518,"ARG_OF_PERICENTER":266.8176,"MEAN_ANOMALY":93.2548,"EPHEMERIS_TYPE":0,"CLASSIFICATION_TYPE":"U","NORAD_CAT_ID":58192,"ELEMENT_SET_NO":999,"REV_AT_EPOCH":13091,"BSTAR":0.0012233459,"MEAN_MOTION_DOT":0.00033565,"MEAN_MOTION_DDOT":0},{"OBJECT_NAME":"COSMOS 249 DEB","OBJECT_ID":"1968-091AU","EPOCH":"2026-03-09T15:21:56.246976","MEAN_MOTION":14.4883057,"ECCENTRICITY":0.0371981,"INCLINATION":61.9727,"RA_OF_ASC_NODE":173.5146,"ARG_OF_PERICENTER":67.41,"MEAN_ANOMALY":296.587,"EPHEMERIS_TYPE":0,"CLASSIFICATION_TYPE":"U","NORAD_CAT_ID":3757,"ELEMENT_SET_NO":999,"REV_AT_EPOCH":81948,"BSTAR":0.0010972,"MEAN_MOTION_DOT":0.00010007,"MEAN_MOTION_DDOT":0}]
